Name,AddressLine1,AddressLine2,City,StateProvinceCode,PostalCode
Brand New Wheels Inc.,150 Edward Ave,NULL,Concord,CA ,94519
Brand New Distant Inn,11874 Valley Blvd.,NULL,Palo Alto,CA ,94303
Brand New Sharp Bikes,160 Oakgrove Rd.,NULL,Lebanon,OR ,97355
Brand New Great Bikes ,18157 W. Book,NULL,Bothell,WA ,98011
Brand New Good Toys,12505 Gateway Drive,NULL,North Sioux City,SD ,57049
Brand New Nice Bikes,1591 Merriewood Drive,NULL,Snohomish,WA ,98296
Brand New Parts Shop,17651 Smiling Tree Court,Space 55,Los Angeles,CA ,90012
Brand New Steel Inc.,19620 Laurel Drive,NULL,Novato,WY ,82070
Brand New Finer Mart,13253 La Jolla,NULL,Salem,OR ,97301
Brand New Bike World,19151 Napa C.,NULL,Lebanon,OR ,97355
Brand New Twin Cycles,19707 Coldwater Drive,NULL,Orlando,FL ,32804
Brand New Hobby Store,1207 Berry Court,NULL,Edmonds,WA ,98020
Brand New Retail Mall,16058 Hill Street,# 4,Bellevue,WA ,98004
Brand New Fleet Bikes,18000 Crane Court,NULL,Redmond,WA ,98052
Brand New Bike Goods ,1989 Crown Ct,NULL,Issaquah,WA ,98027
Brand New Coho Sports,165 Park Glen Court,NULL,Port Orchard,WA ,98366
Brand New Jumbo Bikes,128 San Marino Ct.,NULL,Bellingham,WA ,98225
Brand New Global Plaza,1636 Vine Hill Way,NULL,Portland,OR ,97205
Brand New Tire Company,13074 Arbor Drive,NULL,Carnation,WA ,98014
Brand New Racing Store,11648 Eastgate Lane,NULL,Bellevue,WA ,98004
Brand New Vehicle Shop,11185 Dallas Drive,NULL,Everett,WA ,98201
Brand New Rugged Bikes,14350 Minute Dr.,NULL,Newport Hills,WA ,98006
Brand New Paint Supply,19605 Pheasant Circle,NULL,Gold Bar,WA ,98251
Brand New Future Bikes,19495 Limewood Place,NULL,Renton,WA ,98055
Brand New First Center,12266 Greenwood Circle,NULL,Renton,WA ,98055
Brand New Sleek Bikes ,11803 Olive Hill,NULL,Renton,WA ,98055
Brand New Unique Bikes,19491 Toyon Dr,NULL,Dallas,TX ,75201
Brand New A Bike Store,19056 Mount Dr,NULL,Chicago,IL ,60610
Brand New The Showroom,18513 Hurlstone Ct.,NULL,Altadena,CA ,91001
Brand New Rental Bikes,1250880 Baur Blvd,NULL,Saint Louis,MO ,63103
Brand New Purchase Mart,13148 Rose Street,NULL,Bothell,WA ,98011
Brand New Novelty Bikes,1463 H Stagecoach Rd.,NULL,Kenmore,WA ,98028
Brand New Road-Way Mart,17230 Vine Maple Street,NULL,Snohomish,WA ,98296
Brand New Bike Boutique,1158 Walnut Ave,NULL,Monroe,WA ,98272
Brand New Bikes Anyone?,18310 Ridge Circle,NULL,Monroe,WA ,98272
Brand New Bikes for Two,1426 San Rafael,NULL,Seattle,WA ,98104
Brand New Best o' Bikes,18152 Claudia Dr.,NULL,Edmonds,WA ,98020
Brand New Bike Universe,13632 Bank Way,NULL,Edmonds,WA ,98020
Brand New Weekend Tours,11921 Ranch Road,NULL,Issaquah,WA ,98027
Brand New The Bike Shop,17995 Edwards Ave.,NULL,Lynnwood,WA ,98036
Brand New Riding Cycles,15 Madrid,NULL,Concord,CA ,94519
Brand New Locks Company,1683 Larch Ct.,NULL,Salt Lake City,UT ,84101
Brand New Fast Services,1800 Interchange Blvd.,Suite 2501,Austin,TX ,78701
Brand New Roving Sports,1Noah Lane,NULL,Chicago,IL ,60610
Brand New Riders Company,17484 Roundtree Drive,NULL,Bothell,WA ,98011
Brand New Serious Cycles,11902 Santa Cruz,NULL,Bothell,WA ,98011
Brand New The Gear Store,15553 Cash Avenue,NULL,Kenmore,WA ,98028
Brand New Field Trip Inc,19666 Northridge Ct.,NULL,Carnation,WA ,98014
Brand New Topnotch Bikes,15375 Clearland Circle,NULL,Seattle,WA ,98104
Brand New Travel Systems,1874 Olivera Road,NULL,Seattle,WA ,98104
Brand New Rambling Tours,12038 Encino Drive,NULL,Edmonds,WA ,98020
Brand New Channel Outlet,18684 Military East,NULL,Bellevue,WA ,98004
Brand New Distance Bikes,17808 Brown St.,NULL,Bellevue,WA ,98004
Brand New Westside Plaza,16774 Bonanza,NULL,Bellevue,WA ,98004
Brand New Good Bike Shop,11962 Ferndale Lane,NULL,Sammamish,WA ,98074
Brand New Imaginary Toys,15263 Etcheverry Dr,NULL,Sammamish,WA ,98074
Brand New Rental Gallery,1101 Candy Rd.,NULL,Redmond,WA ,98052
Brand New First Supplies,17297 RisingView,NULL,Redmond,WA ,98052
Brand New Rally Day Mall,18036 Summit View Dr.,NULL,Gold Bar,WA ,98251
Brand New Downtown Hotel,11245 Clay Road,NULL,Index,WA ,98256
Brand New Active Cycling,18585 Los Gatos Ct.,NULL,Issaquah,WA ,98027
Brand New Two Bike Shops,1419 River Ash Court,#9,Lakewood,MO ,63301
Brand New Standard Bikes,18892 Columbia River Ct.,NULL,Santa Cruz,CA ,95062
Brand New Active Systems,18127 Otter Dr.,NULL,Boise,ID ,83702
Brand New The Commissary,Kapp Road West,NULL,Round Rock,TX ,78664
Brand New Economy Center,P.O. Box 62569163,NULL,Dallas,TX ,75201
Brand New eCommerce Bikes,19178 Jumping St.,NULL,Dallas,TX ,75201
Brand New Activity Center,16697 Ridge Park Drive,NULL,Kenmore,WA ,98028
Brand New Resale Services,18192 Seagull Court,NULL,Kenmore,WA ,98028
Brand New Impromptu Trips,19652 Los Angeles,NULL,Monroe,WA ,98272
Brand New Margie's Travel,14566 La Jolla,NULL,Monroe,WA ,98272
Brand New Fast Bike Works,14734 Sycamore Court,NULL,Monroe,WA ,98272
Brand New Number 1 Supply,15802 Ampersand Drive,NULL,Seattle,WA ,98104
Brand New Excellent Bikes,19277 Country View Lane,NULL,Edmonds,WA ,98020
Brand New Fitness Cycling,17820 Bird Drive,NULL,Sammamish,WA ,98074
Brand New Wholesale Bikes,12482 Buckingham Dr.,NULL,Redmond,WA ,98052
Brand New Preferred Bikes,12425 Notre Dame Ave,NULL,Gold Bar,WA ,98251
Brand New Brand New Bikes,16510 Hacienda Drive,NULL,Renton,WA ,98055
Brand New Wholesale Parts,13195 RiverRock Dr.,NULL,Burlingame,CA ,94010
Brand New Small Bike Shop,13681 South St.,NULL,St. Louis,MO ,63103
Brand New Tires and Tubes,1220 Mercy Drive,NULL,Garland,TX ,75040
Brand New Valley Toy Store,16696 Anchor Drive,NULL,Bothell,WA ,98011
Brand New Systematic Sales,180 Sunview Terrace,NULL,Duluth,MN ,55802
Brand New Workout Emporium,14231 Spar Court,NULL,Snohomish,WA ,98296
Brand New Finer Cycle Shop,12598 La Vista Circle,NULL,Duvall,WA ,98019
Brand New Second Bike Shop,13977 Central Avenue,NULL,Duvall,WA ,98019
Brand New Safe Cycles Shop,1502 Alexander Pl.,NULL,Seattle,WA ,98104
Brand New Third Bike Store,14948 West 4th St,NULL,Seattle,WA ,98104
Brand New Futuristic Bikes,1931 Corte De Luna,NULL,Seattle,WA ,98104
Brand New Prosperous Tours,15025 Holiday Hills,NULL,Seattle,WA ,98104
Brand New Metro Bike Works,16870 D Bel Air Drive,NULL,Edmonds,WA ,98020
Brand New Fifth Bike Store,13026 Anchor Drive,NULL,Edmonds,WA ,98020
Brand New Metro Metals Co.,13454 Bel Air Drive,NULL,Bellevue,WA ,98004
Brand New Metro Cycle Shop,11343 Prospect St,NULL,Bellevue,WA ,98004
Brand New Tread Industries,17902 Grammercy Lane,Unit A,Bellevue,WA ,98004
Brand New Budget Toy Store,16307 Greenbelt Way,NULL,Bellevue,WA ,98004
Brand New Pedals Warehouse,11275 West Street,NULL,Redmond,WA ,98052
Brand New Sixth Bike Store,1181 Gaining Drive,NULL,Everett,WA ,98201
Brand New Touring Services,13385 Crestview Drive,NULL,Everett,WA ,98201
Brand New Nearby Bike Mall,11962 Cotton Ct.,NULL,Everett,WA ,98201
Brand New Best Cycle Store,12294 West 39th St.,NULL,Everett,WA ,98201
Brand New Roadway Supplies,15980 Icicle Circle,Unit H,Renton,WA ,98055
Brand New Associated Bikes,13 Chablis Court,NULL,Torrance,CA ,90505
Brand New Exemplary Cycles,1594 Tossing Way,NULL,Detroit,MI ,48226
Brand New Brakes and Gears,190 Trujillo,NULL,Sedro Woolley,WA ,98284
Brand New Better Bike Shop,1207 Concerto Circle,NULL,Salem,OR ,97301
Brand New First Bike Store,150 Kim Court,NULL,Coronado,CA ,92118
Brand New Retail Toy Store,1509 Nafta Boulevard,NULL,Laredo,TX ,78040
Brand New Nationwide Supply,11226 Shoe St.,NULL,Bothell,WA ,98011
Brand New New Bikes Company,1250 Race Court,NULL,Bothell,WA ,98011
Brand New Irregulars Outlet,140 Ellis St.,NULL,Bothell,WA ,98011
Brand New Small Cycle Store,12601 Cambridge Drive,NULL,Snohomish,WA ,98296
Brand New Kickstand Sellers,11356 Grove Way,NULL,Monroe,WA ,98272
Brand New Center Cycle Shop,19693 Mellowood Street,NULL,Duvall,WA ,98019
Brand New First-Rate Outlet,18209 Green View Court,NULL,Duvall,WA ,98019
Brand New Fourth Bike Store,13421 Bouncing Road,NULL,Duvall,WA ,98019
Brand New Unsurpassed Bikes,11411 Ranch Drive,NULL,Carnation,WA ,98014
Brand New Eighty Toy Stores,11102 Ravenwood,NULL,Seattle,WA ,98104
Brand New Modern Bike Store,12354 Frame Ln.,NULL,Seattle,WA ,98104
Brand New Raw Materials Inc,16843 San Simeon Dr.,NULL,Seattle,WA ,98104
Brand New Commendable Bikes,13281 Hillview Dr.,NULL,Edmonds,WA ,98020
Brand New Curbside Universe,15423 Champion Rd.,NULL,Edmonds,WA ,98020
Brand New Speedometer Sales,19745 Bonita Ct.,NULL,Bellevue,WA ,98004
Brand New Mountain Emporium,17221 Peachwillow Street,NULL,Bellevue,WA ,98004
Brand New Riverside Company,1771 Northridge Drive,# 495,Bellevue,WA ,98004
Brand New Bicycle Exporters,12947 Vine Lane,NULL,Bellevue,WA ,98004
Brand New Fitness Toy Store,19104 Mt. Sequoia Ct.,NULL,Sammamish,WA ,98074
Brand New Genuine Bike Shop,19906 Oak Grove Road,NULL,Redmond,WA ,98052
Brand New Bike Rims Company,16369 Ellis Street,NULL,Redmond,WA ,98052
Brand New Superlative Bikes,13928 San Francisco,NULL,Everett,WA ,98201
Brand New Distinctive Store,18624 Pepper Way,NULL,Everett,WA ,98201
Brand New Grand Cycle Store,12176 Apollo Way,NULL,Everett,WA ,98201
Brand New Extreme Toy Store,17640 First Ave.,NULL,Everett,WA ,98201
Brand New Lease-a-Bike Shop,19314 Icicle Way,NULL,Issaquah,WA ,98027
Brand New Retail Cycle Shop,12313 B Southampton Rd,NULL,Missoula,MT ,59801
Brand New Riding Excursions,150 Via Del Sol,NULL,Lynnwood,WA ,98036
Brand New Year-Round Sports,12342 Peachwillow,NULL,Denver,CO ,80203
Brand New Manufacturers Inc,175 Q St.,NULL,Chula Vista,CA ,91910
Brand New Mass Market Bikes,12014 Delta Road,NULL,Burien,WA ,98168
Brand New Rustic Bike Store,140 Panorama Drive,NULL,Glendale,CA ,91203
Brand New First Cycle Store,18040 Erie Dr,6 Monteira,Houston,TX ,77003
Brand New Outdoor Toy Store,125269 N. Wood Dale Rd,NULL,Wood Dale,IL ,60191
Brand New Efficient Cycling,Po Box 80359967,NULL,Dallas,TX ,75201
Brand New Highway Bike Shop,1625 W Jackson Blvd. Unit 2502,NULL,Chicago,IL ,60610
Brand New The Bike Mechanics,19539 Glenside Dr,NULL,Bothell,WA ,98011
Brand New Fun Toys and Bikes,19265 La Paz,NULL,Bothell,WA ,98011
Brand New Mountain Toy Store,15725 Glaze Drive,NULL,San Francisco,CA ,94109
Brand New Tiny Bike Boutique,18154 Via Mexico,NULL,Detroit,MI ,48226
Brand New Quality Bike Sales,1793 Crawford Street,NULL,Kenmore,WA ,98028
Brand New Brightwork Company,15669 Ironwood Way,NULL,Kenmore,WA ,98028
Brand New Seaside Bike Works,15724 Victory Lane,NULL,Snohomish,WA ,98296
Brand New Flawless Bike Shop,14852 Chaparral Court,NULL,Snohomish,WA ,98296
Brand New Nearest Bike Store,14775 Kentucky Dr.,Unit E,Monroe,WA ,98272
Brand New Gasless Cycle Shop,1896 Southdale,NULL,Monroe,WA ,98272
Brand New Country Parts Shop,15086 Nottingham Place,NULL,Duvall,WA ,98019
Brand New Rodeway Bike Store,1991 Vista Verde,NULL,Duvall,WA ,98019
Brand New Pro Sporting Goods,17126 Ending Ct.,NULL,Seattle,WA ,98104
Brand New Front Runner Bikes,13029 Pastime Dr,# 2,Seattle,WA ,98104
Brand New North Bike Company,18656 Lakespring Place,NULL,Seattle,WA ,98104
Brand New Helmets and Cycles,19784 Mt Etna Drive,NULL,Edmonds,WA ,98020
Brand New Independent Outlet,17338 Green St.,NULL,Edmonds,WA ,98020
Brand New Full Sports Supply,17270 Pepper Way,NULL,Bellevue,WA ,98004
Brand New Ace Bicycle Supply,18751 Norse Drive,NULL,Bellevue,WA ,98004
Brand New Sports Commodities,14311 Clay Rd,NULL,Bellevue,WA ,98004
Brand New Ultimate Bike Shop,13708 Montana,NULL,Bellevue,WA ,98004
Brand New Outstanding Cycles,19435 Breck Court,NULL,Bellevue,WA ,98004
Brand New Sports Merchandise,16871 Thornwood Dr.,NULL,Sammamish,WA ,98074
Brand New South Bike Company,12427 Notre Dame Ave.,NULL,Redmond,WA ,98052
Brand New Primary Cycle Shop,1475 Santa Maria,NULL,Everett,WA ,98201
Brand New Major Equipment Co,19008 Creekside Drive,NULL,Everett,WA ,98201
Brand New Friendly Bike Shop,13238 Laguna Circle,NULL,Everett,WA ,98201
Brand New Neighborhood Store,11397 Paradise Ct.,NULL,Newport Hills,WA ,98006
Brand New Racing Bike Outlet,13848 East 39th Street,NULL,Issaquah,WA ,98027
Brand New Super Sports Store,12598 Breck Court,NULL,Renton,WA ,98055
Brand New Bicycle Outfitters,14405 Balboa Court,NULL,Santa Cruz,CA ,95062
Brand New Cash & Carry Bikes,12141 Delaware Ct.,NULL,Downey,TN ,37501
Brand New Expert Cycle Store,115 Pear Dr.,NULL,Newport Beach,CA ,92625
Brand New The New Bike Store,16441 Co Road,NULL,Lemon Grove,AZ ,85252
Brand New Greater Bike Store,132 East 87th Street,NULL,Long Beach,CA ,90802
Brand New Progressive Sports,19098 Story Lane,NULL,Albany,NY ,12210
Brand New Family Cycle Store,16360 Sand Pointe Lane,NULL,Coronado,CA ,92118
Brand New Popular Bike Lines,120 Smiling Tree Court,NULL,Burbank,CA ,91502
Brand New Recreation Systems,13459 Tri-state Ave,NULL,Issaquah,WA ,98027
Brand New Seventh Bike Store,112345 Sterling Avenue,NULL,Irving,TX ,75061
Brand New General Associates,190025 Sterling St,NULL,Irving,TX ,75061
Brand New General Industries,15700 Legacy Dr,NULL,Plano,TX ,75074
Brand New Extended Bike Sales,125 95th Ave NE,NULL,Kenmore,WA ,98028
Brand New Pedaling Components,13280 Pheasant Circle,NULL,Snohomish,WA ,98296
Brand New Teen Discount Store,11792 Belmont Rd.,NULL,Monroe,WA ,98272
Brand New Bulk Discount Store,11825 Corte Del Prado,NULL,Duvall,WA ,98019
Brand New Industrial Supplies,15125 Cotton Ct.,NULL,Seattle,WA ,98104
Brand New Online Bike Sellers,12080 Sycamore Drive,NULL,Edmonds,WA ,98020
Brand New Farthest Bike Store,12466 Clearland Circle,NULL,Edmonds,WA ,98020
Brand New Uttermost Bike Shop,13919 Pinto Road,NULL,Bellevue,WA ,98004
Brand New Nuts and Bolts Mfg.,16202 Seeno St.,NULL,Sammamish,WA ,98074
Brand New Handy Bike Services,11362 Somerset Place,NULL,Everett,WA ,98201
Brand New Online Bike Catalog,13030 Blackburn Ct.,NULL,Newport Hills,WA ,98006
Brand New Suburban Cycle Shop,15979 El Pueblo,NULL,Issaquah,WA ,98027
Brand New Showcase for Cycles,1342 San Simeon,NULL,Issaquah,WA ,98027
Brand New Summer Sports Place,12176 Brown Street,NULL,Renton,WA ,98055
Brand New Real Sporting Goods,14312 Cambridge Drive,NULL,Renton,WA ,98055
Brand New Expert Sports Store,150 Big Canyon Road,NULL,Lebanon,OR ,97355
Brand New Number One Bike Co.,18157 Tweed Lane,NULL,Anacortes,WA ,98221
Brand New Big-Time Bike Store,18981 Carmel Drive,NULL,W. Linn,NV ,89701
Brand New Resident Cycle Shop,12596 Big Canyon Road,NULL,New York,NY ,10007
Brand New Major Bicycle Store,13664 Colt Ct.,NULL,Richmond,CA ,94801
Brand New Metro Manufacturing,1102 Silverado Drive,NULL,W. Linn,OR ,97068
Brand New Mountain Bike Store,13427 C Del Rio Ln,NULL,Anacortes,WA ,98221
Brand New Countryside Company,15514 Grant Street,NULL,Ballard,WA ,98107
Brand New Eastside Cycle Shop,180 Edward Ave,NULL,Burien,WA ,98168
Brand New Eastside Parts Shop,18197 Hermosa,NULL,Salem,OR ,97301
Brand New Exchange Parts Inc.,17786 Olive St,NULL,Olympia,WA ,98501
Brand New Hardware Components,125 N State St,NULL,Chicago,IL ,60610
Brand New Next-Door Bike Store,11970 Napa Ct.,NULL,Bothell,WA ,98011
Brand New Grand Bicycle Stores,17726 Driftwood Drive,NULL,Monroe,WA ,98272
Brand New Golf and Cycle Store,13243 Buckingham Dr.,# 207,Seattle,WA ,98104
Brand New Initial Bike Company,16498 Mining Rd.,NULL,Seattle,WA ,98104
Brand New Outdoor Distributors,17127 Los Gatos Court,NULL,Seattle,WA ,98104
Brand New Nonskid Tire Company,15376 Catanzaro Way,NULL,Seattle,WA ,98104
Brand New Alternative Vehicles,12046 Las Palmas,NULL,Edmonds,WA ,98020
Brand New Tandem Bicycle Store,14777 Rockne Drive,NULL,Bellevue,WA ,98004
Brand New Bikes and Motorbikes,1620 Woodside Ct.,NULL,Bellevue,WA ,98004
Brand New Rural Sporting Goods,12681 Eagle Peak,NULL,Bellevue,WA ,98004
Brand New Casual Bicycle Store,12095 Sierra Drive,NULL,Sammamish,WA ,98074
Brand New Thrilling Bike Tours,17086 O St.,NULL,Sammamish,WA ,98074
Brand New Grand Discount Store,19006 Woodside Way,NULL,Redmond,WA ,98052
Brand New Wonderful Bikes Inc.,11960 Via Catanzaro,NULL,Redmond,WA ,98052
Brand New Westside Cycle Store,1249 Alexander Pl.,NULL,Redmond,WA ,98052
Brand New Grand Sport Boutique,15452 Corte Gilberto,NULL,Everett,WA ,98201
Brand New Satin Finish Company,15670 Bel Air Dr.,NULL,Renton,WA ,98055
Brand New Convenient Bike Shop,1218 Fall Creek Road,NULL,West Covina,CA ,91791
Brand New Blue Bicycle Company,13 Gehringer Drive,NULL,Daly City,CA ,94015
Brand New Rural Cycle Emporium,14151 Olivera,NULL,Atlanta,GA ,30308
Brand New Precision Gears Inc.,11619 Mills Dr.,NULL,Albany,OR ,97321
Brand New Retread Tire Company,1581 Roundtree Place,NULL,Spokane,WA ,99202
Brand New Area Bike Accessories,11399 Firestone Drive,NULL,Bothell,WA ,98011
Brand New Clamps & Brackets Co.,16387 Scenic Avenue,NULL,Bothell,WA ,98011
Brand New Top of the Line Bikes,15415 San Gabriel Dr.,NULL,Bothell,WA ,98011
Brand New Major Sport Suppliers,16872 Thornwood Dr.,NULL,Bothell,WA ,98011
Brand New Bold Bike Accessories,18291 Crossbow Way,NULL,Memphis,TN ,38103
Brand New Remarkable Bike Store,13114 Notre Dame Ave.,NULL,Snohomish,WA ,98296
Brand New Cross-town Parts Shop,13747 W. Landing Avenue,NULL,Monroe,WA ,98272
Brand New Traction Tire Company,1390 Ridgewood Ct.,NULL,Carnation,WA ,98014
Brand New Global Sporting Goods,11619 Stillman Court,NULL,Seattle,WA ,98104
Brand New Toy Manufacturing Inc,17765 Sunsine Drive,NULL,Seattle,WA ,98104
Brand New Economy Bikes Company,11398 Yorba Linda,NULL,Seattle,WA ,98104
Brand New Atypical Bike Company,18290 Margaret Ct.,NULL,Seattle,WA ,98104
Brand New Client Discount Store,12812 Mazatlan,NULL,Edmonds,WA ,98020
Brand New Requisite Part Supply,12059 Clay Rd,NULL,Edmonds,WA ,98020
Brand New Western Bike Supplies,13711 Rollingwood Dr,NULL,Bellevue,WA ,98004
Brand New Corner Bicycle Supply,1332 Laguna Niguel,NULL,Bellevue,WA ,98004
Brand New Vigorous Sports Store,16951 Harmony Way,NULL,Sammamish,WA ,98074
Brand New Urban Sports Emporium,19241 St George Dr.,NULL,Everett,WA ,98201
Brand New One-Piece Handle Bars,18967 Hamilton Ave.,NULL,Newport Hills,WA ,98006
Brand New Finer Riding Supplies,19687 Shakespeare Drive,NULL,Newport Hills,WA ,98006
Brand New Rich Department Store,13884 Beauty Street,# 14,Gold Bar,WA ,98251
Brand New Sundry Sporting Goods,17435 Ricardo,NULL,Issaquah,WA ,98027
Brand New Farthermost Bike Shop,16580 Poor Ridge Court,NULL,Issaquah,WA ,98027
Brand New Roadway Bike Emporium,19533 Working Drive,NULL,Renton,WA ,98055
Brand New Modular Cycle Systems,12 Lion Circle,NULL,Long Beach,CA ,90802
Brand New Economic Parts Supply,16030 Winter Drive,# 4d,Imperial Beach,CA ,91932
Brand New Trusted Catalog Store,17 B Way,NULL,Woodburn,OR ,97071
Brand New The Accessories Store,168 Filling Ave.,NULL,Beaverton,OR ,97005
Brand New Bike Part Wholesalers,17682 Fern Leaf Lane,NULL,Boston,MA ,2113
Brand New Online Bike Warehouse,19443 Oaxaca,NULL,Lakewood,CA ,90712
Brand New Tubeless Tire Company,12500 North Stemmons Freeway,NULL,Dallas,TX ,75201
Brand New Retail Sporting Goods,12509 W. Frankford,NULL,Carrollton,TX ,75006
Brand New Transportation Options,15734 Ashford Court,NULL,Monroe,WA ,98272
Brand New Historic Bicycle Sales,12144 San Rafael,NULL,Seattle,WA ,98104
Brand New Commuter Bicycle Store,17403 N. Broadway,NULL,Seattle,WA ,98104
Brand New Coalition Bike Company,17842 Ygnacio Valley Road,NULL,Seattle,WA ,98104
Brand New Amalgamated Parts Shop,1504 O St.,NULL,Edmonds,WA ,98020
Brand New Outdoor Sporting Goods,16448 Castle Court,NULL,Bellevue,WA ,98004
Brand New Rural Department Store,16968 Wren Ave.,NULL,Bellevue,WA ,98004
Brand New Fitness Discount Store,14444 Pepper Way,NULL,Sammamish,WA ,98074
Brand New Inexpensive Parts Shop,12473 Orchard Way,NULL,Sammamish,WA ,98074
Brand New Local Hardware Factory,19322 Driving Drive,NULL,Redmond,WA ,98052
Brand New Two Wheels Cycle Store,12137 Birchwood Dr,NULL,Redmond,WA ,98052
Brand New Principal Bike Company,19297 Kenston Dr.,NULL,Newport Hills,WA ,98006
Brand New Registered Cycle Store,17691 Benedict Ct.,# 141,Issaquah,WA ,98027
Brand New Functional Store South,17772 Golden Meadow,NULL,Issaquah,WA ,98027
Brand New Regional Manufacturing,17165 Brock Lane,NULL,Renton,WA ,98055
Brand New Quick Delivery Service,12472 Alexander Place,NULL,West Covina,ID ,83301
Brand New Basic Sports Equipment,11286 Cincerto Circle,NULL,Lake Oswego,OR ,97034
Brand New Social Activities Club,1137 Lancelot Dr,NULL,Phoenix,AZ ,85004
Brand New Journey Sporting Goods,167 Monetary Way,NULL,Berkeley,CA ,94704
Brand New Genial Bike Associates,16959 Lakewood Court,NULL,Daly City,CA ,94015
Brand New Central Discount Store,124 Bohon Circle,NULL,Burlingame,CA ,94010
Brand New Bicycle Warehouse Inc.,17 Mayda Way,NULL,Bremerton,WA ,98312
Brand New Fitness Sport Boutique,190 Sunny Ave,NULL,Berkeley,CA ,94704
Brand New Leisure Clearing House,1Corporate Office,NULL,Garland,TX ,75040
Brand New Local Sales and Rental,125550 Executive Dr,NULL,Elgin,IL ,60120
Brand New Designated Distributors,19228 Via Del Sol,NULL,Phoenix,AZ ,85004
Brand New Capital Riding Supplies,15030 Blue Ridge Dr.,NULL,Monroe,WA ,98272
Brand New Another Bicycle Company,15379 Treasure Island Way,# 14,Duvall,WA ,98019
Brand New Latest Sports Equipment,16578 Woodhaven Ln.,NULL,Seattle,WA ,98104
Brand New Eastside Sporting Goods,1172 Turning Dr.,NULL,Edmonds,WA ,98020
Brand New Unusual Bicycle Company,19825 Coralie Drive,NULL,Edmonds,WA ,98020
Brand New Full-Service Bike Store,17939 Bayview Court,NULL,Sammamish,WA ,98074
Brand New Extreme Riding Supplies,12383 Pepper Drive,NULL,Redmond,WA ,98052
Brand New Machines & Cycles Store,17723 Firestone Drive,NULL,Redmond,WA ,98052
Brand New Very Best Sports Supply,18467 Clifford Court,NULL,Redmond,WA ,98052
Brand New First Department Stores,17883 Missing Canyon Court,NULL,Everett,WA ,98201
Brand New Outdoor Equipment Store,17469 Paradise Ct.,NULL,Newport Hills,WA ,98006
Brand New Certified Sports Supply,13127 El Camino Drive,NULL,Index,WA ,98256
Brand New General Riding Supplies,11 Mt. Dell Drive,NULL,Portland,OR ,97205
Brand New Finer Sales and Service,18629 Pepper Place,NULL,Bellevue,WA ,98004
Brand New Superb Sales and Repair,135 Buckthorn Court,# 1,Kirkland,WA ,98033
Brand New Strenuous Exercise Shop,125149 Howard Dr,NULL,West Chicago,IL ,60185
Brand New Area Sheet Metal Supply,1Po Box 8259024,NULL,Dallas,TX ,75201
Brand New Rural Sales and Service,14255 East Lies Road,NULL,Carol Stream,IL ,60188
Brand New Retail Sales and Service,12487 Riverside Drive,NULL,Nevada,UT ,84407
Brand New Blue-Ribbon Bike Company,12115 Passing,NULL,Snohomish,WA ,98296
Brand New Exertion Activities Club,13841 Silver Oaks Place,NULL,Monroe,WA ,98272
Brand New Favorite Toy Distributor,19537 Ridgewood Drive,NULL,Seattle,WA ,98104
Brand New Metal Processing Company,1136 Balboa Court,NULL,Seattle,WA ,98104
Brand New Lots of Bikes Storehouse,17616 Honey Court,NULL,Seattle,WA ,98104
Brand New Mechanical Products Ltd.,1371 Apple Dr.,NULL,Edmonds,WA ,98020
Brand New Professional Cycle Store,11061 Buskrik Avenue,NULL,Edmonds,WA ,98020
Brand New Mechanical Sports Center,17396 Stratton Circle,NULL,Bellevue,WA ,98004
Brand New Camping and Sports Store,13284 S. Blank Avenue,NULL,Bellevue,WA ,98004
Brand New Responsible Bike Dealers,19320 Teakwood Dr.,NULL,Bellevue,WA ,98004
Brand New Advanced Bike Components,16118 Grasswood Circle,NULL,Bellevue,WA ,98004
Brand New Aerobic Exercise Company,15678 Clear Court,NULL,Bellevue,WA ,98004
Brand New General Cycle Storehouse,14525 Benedict Ct.,NULL,Sammamish,WA ,98074
Brand New Principal Bicycle Supply,14096 San Remo,NULL,Sammamish,WA ,98074
Brand New This Area Sporting Goods,14310 Kenston Dr.,NULL,Sammamish,WA ,98074
Brand New Custom Sales and Service,15242 Marvelle Ln.,NULL,Everett,WA ,98201
Brand New Elemental Sporting Goods,14098 Woodcrest Dr.,NULL,Everett,WA ,98201
Brand New Sales and Supply Company,11748 Bird Drive,NULL,Index,WA ,98256
Brand New Successful Sales Company,13514 Sunshine,NULL,Index,WA ,98256
Brand New Stock Parts and Supplies,17985 Center Street,NULL,Renton,WA ,98055
Brand New Our Sporting Goods Store,17179 Montana,NULL,Torrance,CA ,90505
Brand New Tough and Reliable Parts,19830 May Way,NULL,Mill Valley,MT ,59715
Brand New Fitness Bike Accessories,15807 Churchill Dr.,NULL,Corvallis,OR ,97330
Brand New General Bike Corporation,16061 St. Paul Way,NULL,Everett,MT ,98201
Brand New Cycles Wholesaler & Mfg.,14823 Stonewood Ct.,NULL,Walla Walla,WA ,99362
Brand New Latest Accessories Sales,120 Rambling Rose Ave.,# 103,West Covina,CA ,91791
Brand New Hometown Riding Supplies,18844 Garcia,NULL,West Covina,CA ,91791
Brand New Running and Cycling Gear,17824 Frame Ln,NULL,Philadelphia,PA ,19107
Brand New Worthwhile Activity Store,11873 Lion Circle,NULL,Bothell,WA ,98011
Brand New Acclaimed Bicycle Company,13997 Via De Luna,NULL,Cambridge,MA ,2139
Brand New Leading Bike Distributors,14095 Cooper Dr.,NULL,Kenmore,WA ,98028
Brand New Work and Play Association,11285 Greenbrier Street,NULL,Snohomish,WA ,98296
Brand New Juvenile Sports Equipment,18463 Vista Avenue,NULL,Duvall,WA ,98019
Brand New Uncompromising Quality Co,19752 Jeanne Circle,NULL,Carnation,WA ,98014
Brand New World Bike Discount Store,19964 North Ridge Drive,NULL,Seattle,WA ,98104
Brand New Sheet Metal Manufacturing,13067 Maya,NULL,Bellevue,WA ,98004
Brand New Rampart Amusement Company,11144 Paradise Ct.,NULL,Issaquah,WA ,98027
Brand New Excellent Riding Supplies,19530 Vine Lane,NULL,Issaquah,WA ,98027
Brand New Vigorous Exercise Company,13333 Madhatter Circle,NULL,Issaquah,WA ,98027
Brand New Retail Sporting Equipment,17559 Worth Ct.,NULL,Renton,WA ,98055
Brand New Primary Bike Distributors,187 Pheasant Circle,NULL,Oakland,CA ,94611
Brand New Commercial Sporting Goods,11192 Parkway Drive,NULL,Mill Valley,NE ,68601
Brand New Stylish Department Stores,1298 Sunnybrook Drive,NULL,Spring Valley,CA ,91977
Brand New General Department Stores,18671 Westwood Lane,NULL,Palo Alto,CA ,94303
Brand New Operational Manufacturing,187 S. Rising Ave,NULL,Lynnwood,WA ,98036
Brand New All Seasons Sports Supply,163 W Monroe,NULL,Chicago,IL ,60610
Brand New Valley Bicycle Specialists,18713 Yosemite Ct.,NULL,Bothell,WA ,98011
Brand New Widget Bicycle Specialists,17439 Laguna Niguel,NULL,Seattle,WA ,98104
Brand New Racks and Security Systems,12687 Ridge Road,NULL,Edmonds,WA ,98020
Brand New Custom Accessories Company,17511 Cooper Dr.,NULL,Edmonds,WA ,98020
Brand New Kids and Adults Cycle Shop,13066 Wallace Dr.,NULL,Redmond,WA ,98052
Brand New Only Bikes and Accessories,13768 Door Way,NULL,Redmond,WA ,98052
Brand New Utilitarian Sporting Goods,15256 Chickpea Ct.,NULL,Issaquah,WA ,98027
Brand New Sensational Discount Store,11378 String Dr,NULL,Renton,WA ,98055
Brand New Action Bicycle Specialists,15297 Algiers Drive,NULL,Renton,WA ,98055
Brand New Vast Bike Sales and Rental,17943 Walnut Ave,NULL,Renton,WA ,98055
Brand New Racing Supply Distributors,18547 Catherine Way,NULL,Tacoma,WA ,98403
Brand New Incomparable Bicycle Store,16119 11th,NULL,Salt Lake City,UT ,84101
Brand New Metropolitan Sports Supply,17562 Daylight Place,NULL,Everett,WA ,98201
Brand New Little Bicycle Supply Shop,174400 France Avenue South,NULL,Edina,MN ,55436
Brand New Family's Favorite Bike Shop,15747 Shirley Drive,NULL,Bothell,WA ,98011
Brand New Two-Wheeled Transit Company,13670 All Ways Drive,NULL,Bellevue,WA ,98004
Brand New Citywide Service and Repair,16629 Polson Circle,NULL,Everett,WA ,98201
Brand New Professional Sporting Goods,11400 Gate Drive,NULL,Newport Hills,WA ,98006
Brand New Stationary Bikes and Stands,1310 Winter Lane,NULL,Index,WA ,98256
Brand New Price-Cutter Discount Bikes,13770 Viewpoint Ct,NULL,Renton,WA ,98055
Brand New Central Bicycle Specialists,16937 E. 42nd Street,NULL,Renton,WA ,98055
Brand New Spa and Exercise Outfitters,150 Breck Court,NULL,Bremerton,WA ,98312
Brand New Affordable Sports Equipment,152500 Liberty Way,NULL,Fort Worth,TX ,76102
Brand New Community Department Stores,125269 Wood Dale Rd.,NULL,Wood Dale,IL ,60191
Brand New Bicycle Accessories and Kits,15672 Hale Dr.,NULL,Bothell,WA ,98011
Brand New Imported and Domestic Cycles,16657 Sand Pointe Lane,NULL,Seattle,WA ,98104
Brand New Painters Bicycle Specialists,16057 Hill Street,NULL,Edmonds,WA ,98020
Brand New Discount Bicycle Specialists,13397 Rancho View Drive,NULL,Redmond,WA ,98052
Brand New Rewarding Activities Company,1213 Stonewood Drive,NULL,Gold Bar,WA ,98251
Brand New Producer Goods Clearinghouse,181 Ana Mile,NULL,Spokane,WA ,99202
Brand New Metropolitan Sales and Rental,14912 La Vuelta,NULL,Bothell,WA ,98011
Brand New Immense Manufacturing Company,17048 Laurel,NULL,Kenmore,WA ,98028
Brand New Moderately-Priced Bikes Store,177 Birchwood,NULL,Seattle,WA ,98104
Brand New Courteous Bicycle Specialists,18411 Mt. Orange Place,NULL,Edmonds,WA ,98020
Brand New Famous Bike Sales and Service,14909 Poco Lane,NULL,Redmond,WA ,98052
Brand New Futuristic Sport Distributors,17053 Laurel Dr.,NULL,La Mesa,NM ,88044
Brand New Cross-Country Riding Supplies,1978 Mozden Lane,NULL,San Francisco,CA ,94109
Brand New Underglaze and Finish Company,18 Rogers Ave.,NULL,Everett,WA ,98201
Brand New Traditional Department Stores,12834 Clifford Court,#9,Anacortes,WA ,98221
Brand New Professional Sales and Service,19833 Mt. Dias Blv.,NULL,Bothell,WA ,98011
Brand New Lubricant and Grease Suppliers,12275 Valley Blvd.,NULL,Monroe,WA ,98272
Brand New Metallic Paint and Overcoat Co,17166 Brock Lane,NULL,Seattle,WA ,98104
Brand New Plastic Products Manufacturers,16097 Mt. McKinley Ct.,NULL,Redmond,WA ,98052
Brand New Another Sporting Goods Company,19863 Ridge Place,NULL,Redmond,WA ,98052
Brand New Lustrous Paints and Components,19 Guadalupe Dr.,NULL,Burbank,CA ,91502
Brand New Quitting Business Distributors,1628 Muir Road,NULL,Los Angeles,CA ,90012
Brand New Games and Sport Supply Company,131 Bridgeview St,NULL,Glendale,CA ,91203
Brand New Superior Hardware Distributors,16 Dancing Road,NULL,Burien,WA ,98168
Brand New Sporting Goods and Bicycle Shop,14598 Manila Avenue,NULL,Seattle,WA ,98104
Brand New Grease and Oil Products Company,11064 Slow Creek Road,NULL,Seattle,WA ,98104
Brand New Parcel Express Delivery Service,17594 Alexander Pl.,NULL,Seattle,WA ,98104
Brand New Petroleum Products Distributors,18668 Via Neruda,NULL,Bellevue,WA ,98004
Brand New Original Bicycle Supply Company,12736 Scramble Rd,NULL,Renton,WA ,98055
Brand New The Bicycle Accessories Company,12909 Toyon Dr.,NULL,Burlingame,CA ,94010
Brand New Leather and Vinyl Manufacturing,13294 Buena Vista,NULL,Lemon Grove,AZ ,85284
Brand New Versatile Sporting Goods Company,15009 Orange Street,NULL,Renton,WA ,98055
Brand New Odometers and Accessories Company,15666 Hazelnut Lane,NULL,Seattle,WA ,98104
Brand New Fashionable Bikes and Accessories,13665 Oak Creek Ct.,NULL,Everett,WA ,98201
Brand New Synthetic Materials Manufacturing,142500 W 76th St,NULL,Chicago,IL ,60610
Brand New Distinctive Cycles Sales & Service,15203 Virginia Lane,NULL,Kenmore,WA ,98028
Brand New Scratch-Resistant Finishes Company,11220 Bradford Way,NULL,Seattle,WA ,98104
Brand New Thorough Parts and Repair Services,13197 Thornhill Place,NULL,Bellevue,WA ,98004
The New Vinyl and Plastic Goods Corporation,11318 Lasalle Street,NULL,Bothell,WA ,98011
The New Qualified Sales and Repair Services,11667 Warren Street,NULL,West Covina,CA ,91791
